start=new Date('2022-12-12T00:00:00.000Z').valueOf();
sats=[{"ELEMENT_SET_NO":"999","APOAPSIS":"548.425","MEAN_MOTION":"15.06409987","EPHEMERIS_TYPE":"0","TLE_LINE2":"2 48410  53.0544 214.6545 0001794  60.3434 299.7734 15.06409987 89960","SITE":"AFETR","TIME_SYSTEM":"UTC","OBJECT_ID":"2021-038BK","TLE_LINE1":"1 48410U 21038BK  22345.05603585 -.00000300  00000-0 -12203-5 0  9997","CENTER_NAME":"EARTH","INCLINATION":"53.0544","REF_FRAME":"TEME","OBJECT_NAME":"STARLINK-2563","PERIAPSIS":"545.941","ECCENTRICITY":"0.00017940","MEAN_ELEMENT_THEORY":"SGP4","DECAY_DATE":null,"FILE":"3689829","SEMIMAJOR_AXIS":"6925.318","CLASSIFICATION_TYPE":"U","OBJECT_TYPE":"PAYLOAD","LAUNCH_DATE":"2021-05-04","BSTAR":"-0.00000122030000","MEAN_MOTION_DDOT":"0.0000000000000","EPOCH":"2022-12-11T01:20:41.497440","GP_ID":"219999252","MEAN_ANOMALY":"299.7734","ARG_OF_PERICENTER":"60.3434","REV_AT_EPOCH":"8996","RCS_SIZE":"LARGE","COUNTRY_CODE":"US","PERIOD":"95.592","NORAD_CAT_ID":"48410","MEAN_MOTION_DOT":"-0.00000300","RA_OF_ASC_NODE":"214.6545"},{"TLE_LINE1":"1 48411U 21038BL  22345.00675587  .00009423  00000-0  65086-3 0  9992","TIME_SYSTEM":"UTC","OBJECT_ID":"2021-038BL","EPHEMERIS_TYPE":"0","APOAPSIS":"548.384","ELEMENT_SET_NO":"999","MEAN_MOTION":"15.06387050","SITE":"AFETR","TLE_LINE2":"2 48411  53.0517 209.8780 0001633  58.7404 301.3744 15.06387050 90024","OBJECT_NAME":"STARLINK-2505","PERIAPSIS":"546.122","ECCENTRICITY":"0.00016330","CENTER_NAME":"EARTH","INCLINATION":"53.0517","REF_FRAME":"TEME","GP_ID":"219996928","EPOCH":"2022-12-11T00:09:43.707168","LAUNCH_DATE":"2021-05-04","MEAN_MOTION_DDOT":"0.0000000000000","BSTAR":"0.00065086000000","DECAY_DATE":null,"FILE":"3689697","MEAN_ELEMENT_THEORY":"SGP4","OBJECT_TYPE":"PAYLOAD","SEMIMAJOR_AXIS":"6925.388","CLASSIFICATION_TYPE":"U","NORAD_CAT_ID":"48411","MEAN_MOTION_DOT":"0.00009423","PERIOD":"95.593","COUNTRY_CODE":"US","RA_OF_ASC_NODE":"209.8780","MEAN_ANOMALY":"301.3744","RCS_SIZE":"LARGE","REV_AT_EPOCH":"9002","ARG_OF_PERICENTER":"58.7404"},{"EPHEMERIS_TYPE":"0","MEAN_MOTION":"15.06403856","APOAPSIS":"548.286","ELEMENT_SET_NO":"999","TLE_LINE2":"2 48412  53.0548 210.2274 0001565 114.4008 245.7144 15.06403856 90025","SITE":"AFETR","TLE_LINE1":"1 48412U 21038BM  22345.02522742 -.00003586  00000-0 -22192-3 0  9996","OBJECT_ID":"2021-038BM","TIME_SYSTEM":"UTC","CENTER_NAME":"EARTH","REF_FRAME":"TEME","INCLINATION":"53.0548","OBJECT_NAME":"STARLINK-2581","ECCENTRICITY":"0.00015650","PERIAPSIS":"546.118","FILE":"3690081","DECAY_DATE":null,"MEAN_ELEMENT_THEORY":"SGP4","OBJECT_TYPE":"PAYLOAD","SEMIMAJOR_AXIS":"6925.337","CLASSIFICATION_TYPE":"U","GP_ID":"220004240","LAUNCH_DATE":"2021-05-04","MEAN_MOTION_DDOT":"0.0000000000000","EPOCH":"2022-12-11T00:36:19.649088","BSTAR":"-0.00022192000000","MEAN_ANOMALY":"245.7144","RCS_SIZE":"LARGE","ARG_OF_PERICENTER":"114.4008","REV_AT_EPOCH":"9002","MEAN_MOTION_DOT":"-0.00003586","NORAD_CAT_ID":"48412","COUNTRY_CODE":"US","PERIOD":"95.592","RA_OF_ASC_NODE":"210.2274"},{"OBJECT_NAME":"STARLINK-2461","ECCENTRICITY":"0.00014760","PERIAPSIS":"546.222","CENTER_NAME":"EARTH","REF_FRAME":"TEME","INCLINATION":"53.0548","OBJECT_ID":"2021-040A","TIME_SYSTEM":"UTC","TLE_LINE1":"1 48428U 21040A   22345.76281161  .00001282  00000-0  10496-3 0  9997","MEAN_MOTION":"15.06389857","ELEMENT_SET_NO":"999","APOAPSIS":"548.267","EPHEMERIS_TYPE":"0","TLE_LINE2":"2 48428  53.0548 101.4803 0001476  59.6411 300.4724 15.06389857 88114","SITE":"AFETR","PERIOD":"95.593","COUNTRY_CODE":"US","NORAD_CAT_ID":"48428","MEAN_MOTION_DOT":"0.00001282","RA_OF_ASC_NODE":"101.4803","MEAN_ANOMALY":"300.4724","REV_AT_EPOCH":"8811","ARG_OF_PERICENTER":"59.6411","RCS_SIZE":"LARGE","BSTAR":"0.00010496000000","LAUNCH_DATE":"2021-05-09","MEAN_MOTION_DDOT":"0.0000000000000","EPOCH":"2022-12-11T18:18:26.923104","GP_ID":"220097421","MEAN_ELEMENT_THEORY":"SGP4","FILE":"3691993","DECAY_DATE":null,"CLASSIFICATION_TYPE":"U","SEMIMAJOR_AXIS":"6925.380","OBJECT_TYPE":"PAYLOAD"},{"INCLINATION":"53.0552","REF_FRAME":"TEME","CENTER_NAME":"EARTH","PERIAPSIS":"546.176","ECCENTRICITY":"0.00015180","OBJECT_NAME":"STARLINK-2749","SITE":"AFETR","TLE_LINE2":"2 48429  53.0552  71.6195 0001518  74.0871 286.0285 15.06395479 88523","EPHEMERIS_TYPE":"0","ELEMENT_SET_NO":"999","APOAPSIS":"548.279","MEAN_MOTION":"15.06395479","TLE_LINE1":"1 48429U 21040B   22345.73239875  .00002385  00000-0  17899-3 0  9999","TIME_SYSTEM":"UTC","OBJECT_ID":"2021-040B","RCS_SIZE":"LARGE","ARG_OF_PERICENTER":"74.0871","REV_AT_EPOCH":"8852","MEAN_ANOMALY":"286.0285","RA_OF_ASC_NODE":"71.6195","NORAD_CAT_ID":"48429","MEAN_MOTION_DOT":"0.00002385","PERIOD":"95.592","COUNTRY_CODE":"US","OBJECT_TYPE":"PAYLOAD","CLASSIFICATION_TYPE":"U","SEMIMAJOR_AXIS":"6925.362","DECAY_DATE":null,"FILE":"3691993","MEAN_ELEMENT_THEORY":"SGP4","GP_ID":"220098672","LAUNCH_DATE":"2021-05-09","MEAN_MOTION_DDOT":"0.0000000000000","BSTAR":"0.00017899000000","EPOCH":"2022-12-11T17:34:39.252000"},{"OBJECT_NAME":"STARLINK-2729","PERIAPSIS":"545.847","ECCENTRICITY":"0.00019570","CENTER_NAME":"EARTH","REF_FRAME":"TEME","INCLINATION":"53.0536","TLE_LINE1":"1 48430U 21040C   22345.76463117  .00004813  00000-0  34173-3 0  9994","OBJECT_ID":"2021-040C","TIME_SYSTEM":"UTC","EPHEMERIS_TYPE":"0","MEAN_MOTION":"15.06403802","ELEMENT_SET_NO":"999","APOAPSIS":"548.557","TLE_LINE2":"2 48430  53.0536  71.4700 0001957  45.5458 314.5691 15.06403802 88537","SITE":"AFETR","MEAN_MOTION_DOT":"0.00004813","NORAD_CAT_ID":"48430","PERIOD":"95.592","COUNTRY_CODE":"US","RA_OF_ASC_NODE":"71.4700","MEAN_ANOMALY":"314.5691","RCS_SIZE":"LARGE","REV_AT_EPOCH":"8853","ARG_OF_PERICENTER":"45.5458","GP_ID":"220098423","LAUNCH_DATE":"2021-05-09","MEAN_MOTION_DDOT":"0.0000000000000","BSTAR":"0.00034173000000","EPOCH":"2022-12-11T18:21:04.133088","FILE":"3691993","DECAY_DATE":null,"MEAN_ELEMENT_THEORY":"SGP4","OBJECT_TYPE":"PAYLOAD","CLASSIFICATION_TYPE":"U","SEMIMAJOR_AXIS":"6925.337"},{"TLE_LINE1":"1 48431U 21040D   22345.51260124  .00001423  00000-0  11440-3 0  9997","TIME_SYSTEM":"UTC","OBJECT_ID":"2021-040D","EPHEMERIS_TYPE":"0","APOAPSIS":"548.460","ELEMENT_SET_NO":"999","MEAN_MOTION":"15.06397947","TLE_LINE2":"2 48431  53.0559  67.6066 0001791  54.1376 305.9779 15.06397947 89013","SITE":"AFETR","OBJECT_NAME":"STARLINK-2700","ECCENTRICITY":"0.00017910","PERIAPSIS":"545.980","CENTER_NAME":"EARTH","INCLINATION":"53.0559","REF_FRAME":"TEME","GP_ID":"220020771","LAUNCH_DATE":"2021-05-09","BSTAR":"0.00011440000000","MEAN_MOTION_DDOT":"0.0000000000000","EPOCH":"2022-12-11T12:18:08.747136","DECAY_DATE":null,"FILE":"3690787","MEAN_ELEMENT_THEORY":"SGP4","OBJECT_TYPE":"PAYLOAD","CLASSIFICATION_TYPE":"U","SEMIMAJOR_AXIS":"6925.355","NORAD_CAT_ID":"48431","MEAN_MOTION_DOT":"0.00001423","PERIOD":"95.592","COUNTRY_CODE":"US","RA_OF_ASC_NODE":"67.6066","MEAN_ANOMALY":"305.9779","RCS_SIZE":"LARGE","REV_AT_EPOCH":"8901","ARG_OF_PERICENTER":"54.1376"},{"INCLINATION":"53.0559","REF_FRAME":"TEME","CENTER_NAME":"EARTH","PERIAPSIS":"546.284","ECCENTRICITY":"0.00013590","OBJECT_NAME":"STARLINK-2680","TLE_LINE2":"2 48432  53.0559  62.1894 0001359  64.3566 295.7563 15.06396133 88659","SITE":"AFETR","APOAPSIS":"548.167","ELEMENT_SET_NO":"999","MEAN_MOTION":"15.06396133","EPHEMERIS_TYPE":"0","TIME_SYSTEM":"UTC","OBJECT_ID":"2021-040E","TLE_LINE1":"1 48432U 21040E   22345.69282780  .00000296  00000-0  38739-4 0  9997","ARG_OF_PERICENTER":"64.3566","REV_AT_EPOCH":"8865","RCS_SIZE":"LARGE","MEAN_ANOMALY":"295.7563","RA_OF_ASC_NODE":"62.1894","COUNTRY_CODE":"US","PERIOD":"95.592","MEAN_MOTION_DOT":"0.00000296","NORAD_CAT_ID":"48432","CLASSIFICATION_TYPE":"U","SEMIMAJOR_AXIS":"6925.360","OBJECT_TYPE":"PAYLOAD","MEAN_ELEMENT_THEORY":"SGP4","DECAY_DATE":null,"FILE":"3691993","MEAN_MOTION_DDOT":"0.0000000000000","LAUNCH_DATE":"2021-05-09","EPOCH":"2022-12-11T16:37:40.321920","BSTAR":"0.00003873900000","GP_ID":"220097921"},{"TIME_SYSTEM":"UTC","OBJECT_ID":"2021-040F","TLE_LINE1":"1 48433U 21040F   22345.70525905  .00002741  00000-0  20283-3 0  9990","ELEMENT_SET_NO":"999","APOAPSIS":"548.479","MEAN_MOTION":"15.06398902","EPHEMERIS_TYPE":"0","SITE":"AFETR","TLE_LINE2":"2 48433  53.0565  67.0237 0001823  58.2606 301.8561 15.06398902 88580","OBJECT_NAME":"STARLINK-2699","ECCENTRICITY":"0.00018230","PERIAPSIS":"545.954","CENTER_NAME":"EARTH","INCLINATION":"53.0565","REF_FRAME":"TEME","MEAN_MOTION_DDOT":"0.0000000000000","LAUNCH_DATE":"2021-05-09","EPOCH":"2022-12-11T16:55:34.381920","BSTAR":"0.00020283000000","GP_ID":"220098173","MEAN_ELEMENT_THEORY":"SGP4","DECAY_DATE":null,"FILE":"3691993","SEMIMAJOR_AXIS":"6925.352","CLASSIFICATION_TYPE":"U","OBJECT_TYPE":"PAYLOAD","PERIOD":"95.592","COUNTRY_CODE":"US","NORAD_CAT_ID":"48433","MEAN_MOTION_DOT":"0.00002741","RA_OF_ASC_NODE":"67.0237","MEAN_ANOMALY":"301.8561","REV_AT_EPOCH":"8858","ARG_OF_PERICENTER":"58.2606","RCS_SIZE":"LARGE"},{"TLE_LINE1":"1 48434U 21040G   22345.66980696  .00003275  00000-0  23874-3 0  9990","TIME_SYSTEM":"UTC","OBJECT_ID":"2021-040G","SITE":"AFETR","TLE_LINE2":"2 48434  53.0565  72.4163 0001385  82.9278 277.1868 15.06388731 88518","EPHEMERIS_TYPE":"0","ELEMENT_SET_NO":"999","APOAPSIS":"548.207","MEAN_MOTION":"15.06388731","ECCENTRICITY":"0.00013850","PERIAPSIS":"546.289","OBJECT_NAME":"STARLINK-2692","INCLINATION":"53.0565","REF_FRAME":"TEME","CENTER_NAME":"EARTH","GP_ID":"220098923","MEAN_MOTION_DDOT":"0.0000000000000","LAUNCH_DATE":"2021-05-09","BSTAR":"0.00023874000000","EPOCH":"2022-12-11T16:04:31.321344","OBJECT_TYPE":"PAYLOAD","SEMIMAJOR_AXIS":"6925.383","CLASSIFICATION_TYPE":"U","DECAY_DATE":null,"FILE":"3691993","MEAN_ELEMENT_THEORY":"SGP4","RA_OF_ASC_NODE":"72.4163","NORAD_CAT_ID":"48434","MEAN_MOTION_DOT":"0.00003275","PERIOD":"95.593","COUNTRY_CODE":"US","RCS_SIZE":"LARGE","ARG_OF_PERICENTER":"82.9278","REV_AT_EPOCH":"8851","MEAN_ANOMALY":"277.1868"}];
